[{"OBJECT_NAME":"STARLINK-3640","OBJECT_ID":"2022-025AJ","EPOCH":"2026-03-09T10:21:07.304256","MEAN_MOTION":15.0883174,"ECCENTRICITY":0.00016112,"INCLINATION":53.2186,"RA_OF_ASC_NODE":40.2794,"ARG_OF_PERICENTER":89.2667,"MEAN_ANOMALY":270.851,"EPHEMERIS_TYPE":0,"CLASSIFICATION_TYPE":"U","NORAD_CAT_ID":51988,"ELEMENT_SET_NO":999,"REV_AT_EPOCH":22102,"BSTAR":-2.0357944e-5,"MEAN_MOTION_DOT":-6.12e-6,"MEAN_MOTION_DDOT":0},{"OBJECT_NAME":"DISKSAT C","OBJECT_ID":"2025-305A","EPOCH":"2026-03-09T19:16:32.318976","MEAN_MOTION":15.07852977,"ECCENTRICITY":0.00045341,"INCLINATION":45.0017,"RA_OF_ASC_NODE":250.1278,"ARG_OF_PERICENTER":310.7706,"MEAN_ANOMALY":49.2776,"EPHEMERIS_TYPE":0,"CLASSIFICATION_TYPE":"U","NORAD_CAT_ID":67219,"ELEMENT_SET_NO":999,"REV_AT_EPOCH":1231,"BSTAR":0.00075564202,"MEAN_MOTION_DOT":0.00011541,"MEAN_MOTION_DDOT":0}]
